{"spkid": "54016410", "covariance": {"epoch": "2459257.5", "data": [["7.25554507398475E-15", "-9.100874206043754E-15", "-1.97256457324298E-12", "-1.030483851381275E-13", "-7.74623490437471E-13", "-5.653440569866631E-13"], ["-9.100874206043754E-15", "1.142066182204094E-14", "2.468169171025261E-12", "1.298100068022299E-13", "9.664587435232756E-13", "7.031543210947997E-13"], ["-1.97256457324298E-12", "2.468169171025261E-12", "5.682153458621302E-10", "3.23744169873153E-11", "2.329930251007392E-10", "1.620772494796136E-10"], ["-1.030483851381275E-13", "1.298100068022299E-13", "3.23744169873153E-11", "3.51606885082361E-11", "-1.767275869643364E-11", "2.375411231241135E-11"], ["-7.74623490437471E-13", "9.664587435232756E-13", "2.329930251007392E-10", "-1.767275869643364E-11", "1.324443778590809E-10", "5.334536694990484E-11"], ["-5.653440569866631E-13", "7.031543210947997E-13", "1.620772494796136E-10", "2.375411231241135E-11", "5.334536694990484E-11", "2.687355170264143E-10"]], "elements": [{"label": "e", "sigma": 8.51794874015144e-08, "name": "e", "units": null, "value": ".4939086038657565", "title": "eccentricity"}, {"label": "q", "title": "perihelion distance", "value": ".6905628536573346", "units": "au", "name": "q", "sigma": 1.06867496564863e-07}, {"label": "tp", "name": "tp", "sigma": 2.38372680033206e-05, "units": "TDB", "title": "time of perihelion passage", "value": "2459023.441554725105"}, {"sigma": 5.9296448888813e-06, "name": "om", "units": "deg", "value": "30.48569172202546", "title": "longitude of the ascending node", "label": "node"}, {"label": "peri", "units": "deg", "title": "argument of perihelion", "value": "276.1197667045236", "name": "w", "sigma": 1.15084481081978e-05}, {"label": "i", "sigma": 1.63931545782505e-05, "name": "i", "units": "deg", "title": "inclination", "value": "14.98358784849761"}], "labels": ["e", "q", "tp", "node", "peri", "i"]}, "elements": [{"units": null, "value": ".4939131014261484", "title": "eccentricity", "sigma": "8.5317E-8", "name": "e", "label": "e"}, {"sigma": "1.9227E-8", "name": "a", "title": "semi-major axis", "value": "1.363739168090974", "units": "au", "label": "a"}, {"label": "q", "name": "q", "sigma": "1.0673E-7", "units": "au", "title": "perihelion distance", "value": ".6901705260428456"}, {"units": "deg", "title": "inclination; angle with respect to x-y ecliptic plane", "value": "14.98429931496002", "sigma": "1.6398E-5", "name": "i", "label": "i"}, {"label": "node", "name": "om", "sigma": "5.938E-6", "units": "deg", "title": "longitude of the ascending node", "value": "30.42216386244028"}, {"label": "peri", "units": "deg", "value": "276.1374692374944", "title": "argument of perihelion", "name": "w", "sigma": "1.1473E-5"}, {"label": "M", "name": "ma", "sigma": "1.4287E-5", "units": "deg", "title": "mean anomaly", "value": "266.7298278553201"}, {"label": "tp", "units": "TDB", "value": "2461351.207781060476", "title": "time of perihelion passage", "name": "tp", "sigma": "2.6183E-5"}, {"value": "581.6950900188281", "title": "sidereal orbital period", "units": "d", "sigma": "1.2302E-5", "name": "per", "label": "period"}, {"label": "n", "sigma": "1.3088E-8", "name": "n", "units": "deg/d", "title": "mean motion", "value": ".6188809329443501"}, {"sigma": "2.8723E-8", "name": "ad", "units": "au", "title": "aphelion distance", "value": "2.037307810139103", "label": "Q"}], "epoch": "2461200.5"}